0 PAYLOAD B
1 39209U 13037B   13282.11559785  .00000215  00000-0  46677-4 0  2674
2 39209 098.0538 298.4081 0005989 099.1254 261.0628 14.67249852 11893
0 PAYLOAD B
1 39209U 13037B   13282.38838045  .00000229  00000-0  49090-4 0  2680
2 39209 098.0539 298.6763 0005997 098.3139 261.8754 14.67250042 11931
0 PAYLOAD B
1 39209U 13037B   13282.72935821  .00000175  00000-0  39582-4 0  2694
2 39209 098.0541 299.0116 0006013 097.6053 262.5812 14.67249832 11981
0 PAYLOAD B
1 39209U 13037B   13283.07033677  .00000158  00000-0  36460-4 0  2706
2 39209 098.0540 299.3467 0005999 096.8277 263.3626 14.67249988 12034
0 PAYLOAD B
1 39209U 13037B   13283.41131447  .00000165  00000-0  37857-4 0  2718
2 39209 098.0542 299.6820 0006003 095.8481 264.3418 14.67250239 12081
0 PAYLOAD B
1 39209U 13037B   13283.75229191  .00000265  00000-0  55544-4 0  2724
2 39209 098.0544 300.0174 0006073 094.7897 265.3993 14.67250864 12137
0 PAYLOAD B
1 39209U 13037B   13284.09326960  .00000327  00000-0  66557-4 0  2730
2 39209 098.0544 300.3528 0006095 094.2013 265.9901 14.67251520 12182
0 PAYLOAD B
1 39209U 13037B   13284.36605135  .00000323  00000-0  65827-4 0  2740
2 39209 098.0543 300.6209 0006086 093.4757 266.7150 14.67251787 12221
0 PAYLOAD B
1 39209U 13037B   13285.38898376  .00000291  00000-0  60150-4 0  2775
2 39209 098.0547 301.6266 0006112 091.2157 268.9750 14.67252357 12379
0 PAYLOAD B
1 39209U 13037B   13285.66176556  .00000318  00000-0  64858-4 0  2785
2 39209 098.0550 301.8948 0006153 090.2022 269.9877 14.67252647 12415
0 PAYLOAD B
1 39209U 13037B   13285.79815670  .00000314  00000-0  64186-4 0  2797
2 39209 098.0549 302.0287 0006127 089.9089 270.2814 14.67252652 12435
0 PAYLOAD B
1 39209U 13037B   13286.13913386  .00000405  00000-0  80359-4 0  2802
2 39209 098.0549 302.3639 0006108 088.8606 271.3314 14.67253467 12488
0 PAYLOAD B
1 39209U 13037B   13286.41191538  .00000405  00000-0  80384-4 0  2819
2 39209 098.0551 302.6320 0006113 087.9843 272.2067 14.67253715 12526
0 PAYLOAD B
1 39209U 13037B   13286.82108875  .00000256  00000-0  53841-4 0  2829
2 39209 098.0549 303.0341 0006064 087.0940 273.0959 14.67253000 12587
0 PAYLOAD B
1 39209U 13037B   13287.09387019  .00000331  00000-0  67242-4 0  2833
2 39209 098.0548 303.3026 0006076 085.9420 274.2488 14.67253729 12625
0 PAYLOAD B
1 39209U 13037B   13287.43484699  .00000327  00000-0  66471-4 0  2842
2 39209 098.0548 303.6376 0006087 084.9061 275.2842 14.67254046 12671
0 PAYLOAD B
1 39209U 13037B   13287.77582396  .00000269  00000-0  56189-4 0  2853
2 39209 098.0549 303.9728 0006093 084.2974 275.8915 14.67253940 12724
0 PAYLOAD B
1 39209U 13037B   13288.04860557  .00000317  00000-0  64701-4 0  2866
2 39209 098.0551 304.2411 0006128 083.2222 276.9678 14.67254431 12762
0 PAYLOAD B
1 39209U 13037B   13288.18499636  .00000318  00000-0  64995-4 0  2874
2 39209 098.0548 304.3749 0006093 083.0182 277.1720 14.67254517 12785
0 PAYLOAD B
1 39209U 13037B   13288.52597303  .00000343  00000-0  69267-4 0  2888
2 39209 098.0548 304.7100 0006104 082.0979 278.0926 14.67254968 12830
0 PAYLOAD B
1 39209U 13037B   13288.86695000  .00000359  00000-0  72252-4 0  2894
2 39209 098.0548 305.0451 0006159 082.5531 277.6399 14.67255340 12881
0 PAYLOAD B
1 39209U 13037B   13289.00334019  .00000359  00000-0  72252-4 0  2903
2 39209 098.0548 305.1792 0006159 082.1215 278.0689 14.67255451 12908
0 PAYLOAD B
1 39209U 13037B   13289.13973085  .00000418  00000-0  82620-4 0  2916
2 39209 098.0547 305.3130 0006133 081.5396 278.6521 14.67255912 12925
0 PAYLOAD B
1 39209U 13037B   13289.48070712  .00000431  00000-0  84965-4 0  2929
2 39209 098.0547 305.6482 0006162 080.5153 279.6749 14.67256302 12972
0 PAYLOAD B
1 39209U 13037B   13289.82168408  .00000369  00000-0  73940-4 0  2939
2 39209 098.0543 305.9832 0006168 080.1223 280.0683 14.67256144 13024
0 PAYLOAD B
1 39209U 13037B   13290.16265995  .00000435  00000-0  85598-4 0  2944
2 39209 098.0542 306.3185 0006146 079.0932 281.0963 14.67256902 13078
0 PAYLOAD B
1 39209U 13037B   13290.29905049  .00000457  00000-0  89554-4 0  2950
2 39209 098.0545 306.4525 0006151 078.7672 281.4230 14.67257174 13098
0 PAYLOAD B
1 39209U 13037B   13290.64002666  .00000419  00000-0  82912-4 0  2962
2 39209 098.0541 306.7874 0006146 077.9564 282.2326 14.67257309 13140
0 PAYLOAD B
1 39209U 13037B   13290.84461243  .00000407  00000-0  80668-4 0  2978
2 39209 098.0541 306.9889 0006129 078.0582 282.1312 14.67257394 13172
0 PAYLOAD B
1 39209U 13037B   13291.18558840  .00000444  00000-0  87222-4 0  2981
2 39209 098.0540 307.3241 0006147 077.1884 283.0002 14.67257899 13225
0 PAYLOAD B
1 39209U 13037B   13291.39017410  .00000452  00000-0  88728-4 0  2999
2 39209 098.0542 307.5252 0006159 076.3691 283.8201 14.67258181 13258
0 PAYLOAD B
1 39209U 13037B   13291.73115021  .00000376  00000-0  75261-4 0  3000
2 39209 098.0538 307.8603 0006144 075.7419 284.4451 14.67257973 13309
0 PAYLOAD B
1 39209U 13037B   13292.07212628  .00000441  00000-0  86699-4 0  3010
2 39209 098.0537 308.1954 0006109 074.8615 285.3283 14.67258745 13356
0 PAYLOAD B
1 39209U 13037B   13292.41310177  .00000425  00000-0  83823-4 0  3025
2 39209 098.0534 308.5306 0006098 073.8371 286.3505 14.67259014 13407
0 PAYLOAD B
1 39209U 13037B   13292.75407757  .00000360  00000-0  72435-4 0  3039
2 39209 098.0534 308.8657 0006080 073.0777 287.1073 14.67258885 13451
0 PAYLOAD B
1 39209U 13037B   13293.09505371  .00000485  00000-0  94581-4 0  3043
2 39209 098.0533 309.2012 0006125 072.2180 287.9720 14.67259927 13500
0 PAYLOAD B
1 39209U 13037B   13293.43602868  .00000488  00000-0  95085-4 0  3054
2 39209 098.0534 309.5364 0006123 071.2861 288.9009 14.67260325 13557
0 PAYLOAD B
1 39209U 13037B   13293.77700414  .00000425  00000-0  83804-4 0  3065
2 39209 098.0534 309.8715 0006095 070.7770 289.4080 14.67260275 13606
0 PAYLOAD B
1 39209U 13037B   13294.04978483  .00000445  00000-0  87468-4 0  3072
2 39209 098.0531 310.1396 0006061 070.2433 289.9434 14.67260630 13644
0 PAYLOAD B
1 39209U 13037B   13294.39076016  .00000430  00000-0  84854-4 0  3082
2 39209 098.0532 310.4747 0006062 069.1881 290.9974 14.67260873 13698
0 PAYLOAD B
1 39209U 13037B   13294.73173559  .00000376  00000-0  75222-4 0  3099
2 39209 098.0532 310.8099 0006042 068.0985 292.0850 14.67260800 13745
0 PAYLOAD B
1 39209U 13037B   13295.07271059  .00000427  00000-0  84271-4 0  3104
2 39209 098.0531 311.1451 0006001 067.1374 293.0464 14.67261505 13797
0 PAYLOAD B
1 39209U 13037B   13295.41368581  .00000412  00000-0  81578-4 0  3111
2 39209 098.0530 311.4803 0006000 066.2860 293.8974 14.67261751 13842
0 PAYLOAD B
1 39209U 13037B   13295.75466123  .00000364  00000-0  73016-4 0  3124
2 39209 098.0530 311.8153 0005921 066.1522 294.0298 14.67261576 13891
0 PAYLOAD B
1 39209U 13037B   13296.09563667  .00000338  00000-0  68441-4 0  3131
2 39209 098.0526 312.1504 0005908 065.4113 294.7726 14.67261823 13947
